{
  "type": "FeatureCollection",
  "features": [
    {
      "type": "Feature",
      "properties": {
        "norad_id": 54741,
        "name": "GALAXY 35 (G-35)",
        "group": "intelsat",
        "lat": -0.025048888440075658,
        "lon": -166.98867065095052,
        "alt_km": 35783.51582133906,
        "timestamp": "2025-12-13T13:34:34.742547+00:00",
        "meta_object_name": "GALAXY 35 (G-35)",
        "meta_object_id": "2022-170A",
        "meta_epoch": "2025-12-12T23:18:38.037312",
        "meta_mean_motion": 1.00271195,
        "meta_eccentricity": 0.00024616,
        "meta_inclination": 0.0151,
        "meta_ra_of_asc_node": 285.1885,
        "meta_arg_of_pericenter": 342.5357,
        "meta_mean_anomaly": 70.7514,
        "meta_ephemeris_type": 0,
        "meta_classification_type": "U",
        "meta_norad_cat_id": 54741,
        "meta_element_set_no": 999,
        "meta_rev_at_epoch": 1102,
        "meta_bstar": 0,
        "meta_mean_motion_dot": -1.5e-06,
        "meta_mean_motion_ddot": 0,
        "tle_line1": "1 54741U 22170A   25346.97127358 -.00000150  00000+0  00000+0 0  9990",
        "tle_line2": "2 54741   0.0151 285.1885 0002461 342.5357  70.7514  1.00271195 11023"
      },
      "geometry": {
        "type": "Point",
        "coordinates": [
          -166.98867065095052,
          -0.025048888440075658
        ]
      }
    },
    {
      "type": "Feature",
      "properties": {
        "norad_id": 54742,
        "name": "GALAXY 36 (G-36)",
        "group": "intelsat",
        "lat": 0.009949177882729855,
        "lon": -162.86660484850898,
        "alt_km": 35786.27269041038,
        "timestamp": "2025-12-13T13:34:34.742557+00:00",
        "meta_object_name": "GALAXY 36 (G-36)",
        "meta_object_id": "2022-170B",
        "meta_epoch": "2025-12-12T23:19:45.430176",
        "meta_mean_motion": 1.00272204,
        "meta_eccentricity": 3.695e-05,
        "meta_inclination": 0.0377,
        "meta_ra_of_asc_node": 139.458,
        "meta_arg_of_pericenter": 158.0471,
        "meta_mean_anomaly": 45.3488,
        "meta_ephemeris_type": 0,
        "meta_classification_type": "U",
        "meta_norad_cat_id": 54742,
        "meta_element_set_no": 999,
        "meta_rev_at_epoch": 1090,
        "meta_bstar": 0,
        "meta_mean_motion_dot": -1.72e-06,
        "meta_mean_motion_ddot": 0,
        "tle_line1": "1 54742U 22170B   25346.97205359 -.00000172  00000+0  00000+0 0  9993",
        "tle_line2": "2 54742   0.0377 139.4580 0000369 158.0471  45.3488  1.00272204 10905"
      },
      "geometry": {
        "type": "Point",
        "coordinates": [
          -162.86660484850898,
          0.009949177882729855
        ]
      }
    },
    {
      "type": "Feature",
      "properties": {
        "norad_id": 57493,
        "name": "GALAXY 37 (G-37)",
        "group": "intelsat",
        "lat": 0.012066836199755791,
        "lon": 159.11211946566394,
        "alt_km": 35788.71540847106,
        "timestamp": "2025-12-13T13:34:34.742567+00:00",
        "meta_object_name": "GALAXY 37 (G-37)",
        "meta_object_id": "2023-112A",
        "meta_epoch": "2025-12-12T23:08:53.969856",
        "meta_mean_motion": 1.00271846,
        "meta_eccentricity": 0.00021331,
        "meta_inclination": 0.0148,
        "meta_ra_of_asc_node": 36.9115,
        "meta_arg_of_pericenter": 229.6492,
        "meta_mean_anomaly": 35.5698,
        "meta_ephemeris_type": 0,
        "meta_classification_type": "U",
        "meta_norad_cat_id": 57493,
        "meta_element_set_no": 999,
        "meta_rev_at_epoch": 867,
        "meta_bstar": 0,
        "meta_mean_motion_dot": 6.1e-07,
        "meta_mean_motion_ddot": 0,
        "tle_line1": "1 57493U 23112A   25346.96451354  .00000061  00000+0  00000+0 0  9999",
        "tle_line2": "2 57493   0.0148  36.9115 0002133 229.6492  35.5698  1.00271846  8677"
      },
      "geometry": {
        "type": "Point",
        "coordinates": [
          159.11211946566394,
          0.012066836199755791
        ]
      }
    }
  ]
}